[{"OBJECT_NAME":"STARLINK-4386","OBJECT_ID":"2022-105B","EPOCH":"2026-03-09T15:28:07.769568","MEAN_MOTION":15.05650293,"ECCENTRICITY":0.0002183,"INCLINATION":97.6023,"RA_OF_ASC_NODE":311.223,"ARG_OF_PERICENTER":74.0252,"MEAN_ANOMALY":286.1215,"EPHEMERIS_TYPE":0,"CLASSIFICATION_TYPE":"U","NORAD_CAT_ID":53649,"ELEMENT_SET_NO":999,"REV_AT_EPOCH":19329,"BSTAR":-1.5178e-5,"MEAN_MOTION_DOT":-2.8e-6,"MEAN_MOTION_DDOT":0},{"OBJECT_NAME":"KUIPER-00139","OBJECT_ID":"2025-217D","EPOCH":"2026-03-09T07:26:02.378400","MEAN_MOTION":15.01890214,"ECCENTRICITY":0.00071199,"INCLINATION":51.8865,"RA_OF_ASC_NODE":35.54,"ARG_OF_PERICENTER":318.901,"MEAN_ANOMALY":41.1425,"EPHEMERIS_TYPE":0,"CLASSIFICATION_TYPE":"U","NORAD_CAT_ID":65765,"ELEMENT_SET_NO":999,"REV_AT_EPOCH":2495,"BSTAR":0.00087196011,"MEAN_MOTION_DOT":0.00011274,"MEAN_MOTION_DDOT":0}]
